{
  "norad_id": 67703,
  "name": "STARLINK-36630",
  "history": [
    {
      "epoch": "2026-03-28T18:21:25.257888Z",
      "apogee_km": 419.9065376761473,
      "perigee_km": 418.1285379921401,
      "latitude_deg": -4.026274520095816e-05,
      "longitude_deg": 98.45743218120181,
      "height_km": 421.9549644449662,
      "semi_major_axis_km": 6797.154537834143,
      "eccentricity": 0.00013079,
      "inclination_deg": 97.2825,
      "raan_deg": 199.9933,
      "arg_perigee_deg": 77.4003,
      "mean_anomaly_deg": 282.7394,
      "mean_motion_rev_day": 15.49216258
    },
    {
      "epoch": "2026-03-29T03:39:30.187872Z",
      "apogee_km": 421.0878505051869,
      "perigee_km": 416.77035411699853,
      "latitude_deg": -7.000312528934433e-05,
      "longitude_deg": -41.054799320059715,
      "height_km": 421.81113314249984,
      "semi_major_axis_km": 6797.066102311092,
      "eccentricity": 0.0003176,
      "inclination_deg": 97.2848,
      "raan_deg": 200.3836,
      "arg_perigee_deg": 83.4583,
      "mean_anomaly_deg": 276.7029,
      "mean_motion_rev_day": 15.49246493
    },
    {
      "epoch": "2026-03-30T01:21:41.261184Z",
      "apogee_km": 420.67207897691605,
      "perigee_km": 417.5100084909718,
      "latitude_deg": 4.7830539246142e-05,
      "longitude_deg": -6.5775662605467815,
      "height_km": 421.8584483960724,
      "semi_major_axis_km": 6797.228043733944,
      "eccentricity": 0.0002326,
      "inclination_deg": 97.2859,
      "raan_deg": 201.2983,
      "arg_perigee_deg": 76.7616,
      "mean_anomaly_deg": 283.3895,
      "mean_motion_rev_day": 15.49191128
    },
    {
      "epoch": "2026-03-30T06:00:43.485120Z",
      "apogee_km": 420.67010320476584,
      "perigee_km": 417.3147682301178,
      "latitude_deg": -5.0154105874360577e-05,
      "longitude_deg": -76.33241406346148,
      "height_km": 421.7663875120873,
      "semi_major_axis_km": 6797.129435717441,
      "eccentricity": 0.00024682,
      "inclination_deg": 97.2859,
      "raan_deg": 201.4937,
      "arg_perigee_deg": 77.7728,
      "mean_anomaly_deg": 282.3799,
      "mean_motion_rev_day": 15.4922484
    },
    {
      "epoch": "2026-03-30T07:33:44.130240Z",
      "apogee_km": 419.6643649434018,
      "perigee_km": 418.3768473496457,
      "latitude_deg": 3.7218019958024594e-05,
      "longitude_deg": -99.5838766944809,
      "height_km": 422.12772512980786,
      "semi_major_axis_km": 6797.157606146524,
      "eccentricity": 9.471e-05,
      "inclination_deg": 97.2852,
      "raan_deg": 201.5586,
      "arg_perigee_deg": 87.7993,
      "mean_anomaly_deg": 272.3367,
      "mean_motion_rev_day": 15.49215209
    },
    {
      "epoch": "2026-03-30T21:30:50.845248Z",
      "apogee_km": 419.92503152475547,
      "perigee_km": 418.1754355308449,
      "latitude_deg": -6.426843239921499e-05,
      "longitude_deg": 51.15177493039206,
      "height_km": 422.1971508457984,
      "semi_major_axis_km": 6797.187233527799,
      "eccentricity": 0.0001287,
      "inclination_deg": 97.2836,
      "raan_deg": 202.1452,
      "arg_perigee_deg": 91.0204,
      "mean_anomaly_deg": 269.1194,
      "mean_motion_rev_day": 15.4920508
    },
    {
      "epoch": "2026-03-31T20:00:01.999008Z",
      "apogee_km": 420.04877921878233,
      "perigee_km": 417.9566196193009,
      "latitude_deg": -2.200027811174617,
      "longitude_deg": -106.4011354567059,
      "height_km": 422.39151828276067,
      "semi_major_axis_km": 6797.139699419042,
      "eccentricity": 0.0001539,
      "inclination_deg": 97.2857,
      "raan_deg": 203.0921,
      "arg_perigee_deg": 95.1637,
      "mean_anomaly_deg": 86.8972,
      "mean_motion_rev_day": 15.49221331
    }
  ]
}